[
  {
    "id": "relation/7131952",
    "name": "Nerina Residence",
    "description": null,
    "ref": null,
    "centroid": {
      "longitude": 28.235757040714713,
      "latitude": -25.75676259758456
    },
    "tags": {
      "@id": "relation/7131952",
      "building": "dormitory",
      "type": "multipolygon"
    }
  },
  {
    "id": "relation/7136063",
    "name": "Faculty of Humanities",
    "description": null,
    "ref": "20",
    "centroid": {
      "longitude": 28.230987838517397,
      "latitude": -25.752272797376108
    },
    "tags": {
      "@id": "relation/7136063",
      "building": "university",
      "name": "Faculty of Humanities",
      "ref": "20",
      "type": "multipolygon"
    }
  },
  {
    "id": "relation/7146796",
    "name": "Mathematics building",
    "description": null,
    "ref": "17",
    "centroid": {
      "longitude": 28.229998564272126,
      "latitude": -25.752301869350326
    },
    "tags": {
      "@id": "relation/7146796",
      "building": "university",
      "name": "Mathematics building",
      "ref": "17",
      "type": "multipolygon"
    }
  },
  {
    "id": "relation/17839144",
    "name": "Economics Department",
    "description": null,
    "ref": null,
    "centroid": {
      "longitude": 28.23241749330147,
      "latitude": -25.754773127143675
    },
    "tags": {
      "@id": "relation/17839144",
      "building": "yes",
      "name": "Economics Department",
      "type": "multipolygon"
    }
  },
  {
    "id": "relation/17839145",
    "name": null,
    "description": null,
    "ref": null,
    "centroid": {
      "longitude": 28.232969950958577,
      "latitude": -25.755178413409755
    },
    "tags": {
      "@id": "relation/17839145",
      "building": "yes",
      "type": "multipolygon"
    }
  },
  {
    "id": "way/103768391",
    "name": "Musaion and Amphitheatre",
    "description": "Faculty of Humanities\nDepartment of Music",
    "ref": "33",
    "centroid": {
      "longitude": 28.228920610302108,
      "latitude": -25.75464333211766
    },
    "tags": {
      "@id": "way/103768391",
      "addr:city": "Pretoria",
      "addr:housenumber": "357",
      "addr:postcode": "0002",
      "addr:street": "Elandspoort",
      "building": "university",
      "building:levels": "3",
      "description": "Faculty of Humanities\nDepartment of Music",
      "name": "Musaion and Amphitheatre",
      "note": "Hatfield Digital Twin City",
      "ref": "33"
    }
  },
  {
    "id": "way/103768400",
    "name": "Music Building",
    "description": "Faculty of Humanities\nDepartment of music",
    "ref": "32",
    "centroid": {
      "longitude": 28.22860639794146,
      "latitude": -25.75500260798461
    },
    "tags": {
      "@id": "way/103768400",
      "addr:city": "Pretoria",
      "addr:housenumber": "357",
      "addr:postcode": "0002",
      "addr:street": "Elandspoort",
      "building": "university",
      "building:levels": "1",
      "description": "Faculty of Humanities\nDepartment of music",
      "name": "Music Building",
      "note": "Hatfield Digital Twin City",
      "ref": "32"
    }
  },
  {
    "id": "way/107184392",
    "name": "Engineering 2",
    "description": "Faculty of Engineering, Built Environment & IT",
    "ref": "8",
    "centroid": {
      "longitude": 28.227998254874603,
      "latitude": -25.75355880113317
    },
    "tags": {
      "@id": "way/107184392",
      "addr:city": "Pretoria",
      "addr:country": "ZA",
      "addr:housenumber": "440",
      "addr:postcode": "0002",
      "addr:street": "University Road",
      "amenity": "university",
      "building": "university",
      "building:levels": "4",
      "contact:website": "https://www.up.ac.za",
      "description": "Faculty of Engineering, Built Environment & IT",
      "faculty": "Engineering",
      "internet_access": "wlan",
      "internet_access:fee": "no",
      "internet_access:ssid": "eduroam",
      "name": "Engineering 2",
      "operator": "University of Pretoria",
      "operator:type": "university",
      "ref": "8"
    }
  },
  {
    "id": "way/120284728",
    "name": "Department of Architecture: Boukunde",
    "description": "Faculty of Engineering, Built Environment & IT",
    "ref": "3",
    "centroid": {
      "longitude": 28.229224704952443,
      "latitude": -25.756092177186517
    },
    "tags": {
      "@id": "way/120284728",
      "addr:city": "Pretoria",
      "addr:housename": "Boukunde",
      "addr:postcode": "0001",
      "addr:street": "Ring Road",
      "architect": "Meiring & Naud√©",
      "building": "yes",
      "building:levels": "4",
      "building:levels:underground": "1",
      "building:material": "concrete",
      "description": "Faculty of Engineering, Built Environment & IT",
      "height": "18",
      "int_name": "Building Science",
      "name": "Department of Architecture: Boukunde",
      "ref": "3",
      "roof:colour": "grey",
      "source": "Bing;local knowledge"
    }
  },
  {
    "id": "way/137189652",
    "name": "Administration Building",
    "description": "University of Pretoria",
    "ref": null,
    "centroid": {
      "longitude": 28.226181455985664,
      "latitude": -25.755438145050682
    },
    "tags": {
      "@id": "way/137189652",
      "addr:city": "Pretoria",
      "addr:postcode": "0132",
      "addr:street": "Lynnwood Road",
      "building": "yes",
      "building:code": "33",
      "building:levels": "4",
      "description": "University of Pretoria",
      "name": "Administration Building"
    }
  },
  {
    "id": "way/137189653",
    "name": "Administration",
    "description": "University of Pretoria",
    "ref": "5",
    "centroid": {
      "longitude": 28.226982866520157,
      "latitude": -25.75535955385546
    },
    "tags": {
      "@id": "way/137189653",
      "addr:city": "Pretoria",
      "addr:postcode": "0132",
      "addr:street": "Lynnwood Road",
      "building": "university",
      "building:levels": "4",
      "description": "University of Pretoria",
      "name": "Administration",
      "note": "Hatfield Digital Twin City",
      "ref": "5"
    }
  },
  {
    "id": "way/137215485",
    "name": "CEFIM",
    "description": "University of Pretoria",
    "ref": "6",
    "centroid": {
      "longitude": 28.22759166244677,
      "latitude": -25.7542777517761
    },
    "tags": {
      "@id": "way/137215485",
      "amenity": "university",
      "building": "yes",
      "description": "University of Pretoria",
      "height": "8",
      "name": "CEFIM",
      "ref": "6"
    }
  },
  {
    "id": "way/172788078",
    "name": "Student Service Center Building",
    "description": null,
    "ref": "43",
    "centroid": {
      "longitude": 28.231325227756397,
      "latitude": -25.75545428512887
    },
    "tags": {
      "@id": "way/172788078",
      "addr:city": "Pretoria",
      "addr:postcode": "0002",
      "addr:street": "Ring Road",
      "architect": "Brian Sandrock",
      "building": "commercial",
      "building:levels": "2",
      "name": "Student Service Center Building",
      "note": "Hatfield Digital Twin City",
      "ref": "43",
      "smoking": "no"
    }
  },
  {
    "id": "way/172789016",
    "name": "Student Center Building",
    "description": null,
    "ref": "41",
    "centroid": {
      "longitude": 28.231678295903517,
      "latitude": -25.75428284887578
    },
    "tags": {
      "@id": "way/172789016",
      "building": "university",
      "building:levels": "6",
      "name": "Student Center Building",
      "ref": "41"
    }
  },
  {
    "id": "way/302557859",
    "name": "Zoology Building",
    "description": "Faculty of Natural & Agricultural Sciences",
    "ref": "24",
    "centroid": {
      "longitude": 28.230803771832317,
      "latitude": -25.753731951002678
    },
    "tags": {
      "@id": "way/302557859",
      "addr:city": "Pretoria",
      "addr:postcode": "0002",
      "addr:street": "Elandspoort 357-Jr",
      "building": "yes",
      "building:levels": "3",
      "description": "Faculty of Natural & Agricultural Sciences",
      "height": "8",
      "name": "Zoology Building",
      "ref": "24"
    }
  },
  {
    "id": "way/302901576",
    "name": "Natural Sciences 1 Building",
    "description": "Faculty of Natural & Agricultural Sciences",
    "ref": "27",
    "centroid": {
      "longitude": 28.229848425275648,
      "latitude": -25.75295017510334
    },
    "tags": {
      "@id": "way/302901576",
      "addr:city": "Hatfield",
      "addr:postcode": "0002",
      "addr:street": "Kanseliers Avenue",
      "architect": "SV Architects (now known as HLM Architects)",
      "building": "university",
      "building:levels": "6",
      "building:material": "concrete,_masonry",
      "description": "Faculty of Natural & Agricultural Sciences",
      "height": "21.25",
      "name": "Natural Sciences 1 Building",
      "ref": "27"
    }
  },
  {
    "id": "way/302901948",
    "name": "Law Building",
    "description": "Used by the University of Pretoria, Faculty of Law, this building houses the O.R. Tambo library, along with offices and lecture halls",
    "ref": "56",
    "centroid": {
      "longitude": 28.23409579907358,
      "latitude": -25.754093184166674
    },
    "tags": {
      "@id": "way/302901948",
      "addr:city": "Pretoria",
      "addr:housenumber": "40",
      "addr:postcode": "0083",
      "addr:street": "Duxbury Road",
      "architect": "Kruger Roos",
      "building": "university",
      "building:levels": "4",
      "building:levels:underground": "0",
      "building:material": "concrete",
      "description": "Used by the University of Pretoria, Faculty of Law, this building houses the O.R. Tambo library, along with offices and lecture halls",
      "height": "14",
      "image": "https://www.google.com/maps/uv?pb=!1s0x1e9561bc65423271:0x674fb0ec8c663658!3m1!7e115!4shttps://lh5.googleusercontent.com/p/AF1QipPWne4I1daFF2E3fUSsPSakLKqZchnICzMuOXip%3Dw108-h144-k-no!5suniversity+of+pretoria+law+building+-+Google+Search!15zQ2dJZ0FRPT0&i",
      "name": "Law Building",
      "operator": "University of Pretoria, Faculty of Law",
      "ref": "56",
      "roof:colour": "white",
      "smoking": "outside",
      "source": "local knowledge;aerial imagery;streetlevel imagery",
      "wheelchair": "limited",
      "wikidata": "Q7896156",
      "wikipedia": "en:University of Pretoria Faculty of Law"
    }
  },
  {
    "id": "way/302901952",
    "name": "Merensky library",
    "description": null,
    "ref": null,
    "centroid": {
      "longitude": 28.23041299628789,
      "latitude": -25.755079338705755
    },
    "tags": {
      "@id": "way/302901952",
      "addr:city": "Pretoria",
      "addr:postcode": "0002",
      "addr:street": "University Road",
      "building": "library",
      "building:levels": "6",
      "name": "Merensky library"
    }
  },
  {
    "id": "way/302902142",
    "name": "Old Chemistry Building",
    "description": null,
    "ref": "40",
    "centroid": {
      "longitude": 28.23084376619215,
      "latitude": -25.754410602639904
    },
    "tags": {
      "@id": "way/302902142",
      "building": "yes",
      "name": "Old Chemistry Building",
      "ref": "40"
    }
  },
  {
    "id": "way/302903071",
    "name": "Aula and Rautenbach Hall",
    "description": null,
    "ref": "29",
    "centroid": {
      "longitude": 28.228761863784882,
      "latitude": -25.753890238709186
    },
    "tags": {
      "@id": "way/302903071",
      "building": "yes",
      "layer": "1",
      "name": "Aula and Rautenbach Hall",
      "ref": "29"
    }
  },
  {
    "id": "way/302903416",
    "name": "Old College House",
    "description": null,
    "ref": "26",
    "centroid": {
      "longitude": 28.229925417315165,
      "latitude": -25.753343866569985
    },
    "tags": {
      "@id": "way/302903416",
      "building": "university",
      "name": "Old College House",
      "name:af": "Studentesakegebou",
      "name:en": "Student Affairs building",
      "ref": "26"
    }
  },
  {
    "id": "way/302903694",
    "name": "Natural Science Building 2",
    "description": "Faculty of Natural & Agricultural Sciences",
    "ref": "28",
    "centroid": {
      "longitude": 28.229277258288654,
      "latitude": -25.75310851543923
    },
    "tags": {
      "@id": "way/302903694",
      "building": "university",
      "description": "Faculty of Natural & Agricultural Sciences",
      "name": "Natural Science Building 2",
      "ref": "28"
    }
  },
  {
    "id": "way/302904056",
    "name": "Chemistry Building",
    "description": "Faculty of Natural & Agricultural Sciences",
    "ref": "23",
    "centroid": {
      "longitude": 28.230907738108268,
      "latitude": -25.753160628290576
    },
    "tags": {
      "@id": "way/302904056",
      "building": "university",
      "description": "Faculty of Natural & Agricultural Sciences",
      "name": "Chemistry Building",
      "ref": "23"
    }
  },
  {
    "id": "way/302908055",
    "name": "Roosmaryn",
    "description": null,
    "ref": "54",
    "centroid": {
      "longitude": 28.232070850000003,
      "latitude": -25.753416599999998
    },
    "tags": {
      "@id": "way/302908055",
      "building": "university",
      "name": "Roosmaryn",
      "ref": "54"
    }
  },
  {
    "id": "way/302908448",
    "name": "Geography Building",
    "description": "Faculty of Natural & Agricultural Sciences",
    "ref": "25",
    "centroid": {
      "longitude": 28.23040847528904,
      "latitude": -25.75353096261031
    },
    "tags": {
      "@id": "way/302908448",
      "addr:city": "Hatfield",
      "addr:housename": "University of Pretoria",
      "addr:postcode": "0001",
      "building": "university",
      "building:levels": "3",
      "description": "Faculty of Natural & Agricultural Sciences",
      "designation": "Lecture hall",
      "name": "Geography Building",
      "phone": "+27 12 420 3536",
      "ref": "25",
      "source": "Primary",
      "wheelchair": "limited"
    }
  },
  {
    "id": "way/313866067",
    "name": "Engineering 3 Building",
    "description": "Faculty of Engineering, Built Environment & IT",
    "ref": "31",
    "centroid": {
      "longitude": 28.228229169275,
      "latitude": -25.75445180244821
    },
    "tags": {
      "@id": "way/313866067",
      "building": "university",
      "building:levels": "5",
      "description": "Faculty of Engineering, Built Environment & IT",
      "name": "Engineering 3 Building",
      "ref": "31"
    }
  },
  {
    "id": "way/360552567",
    "name": "Sci-Enza",
    "description": null,
    "ref": "19",
    "centroid": {
      "longitude": 28.231321549231595,
      "latitude": -25.75175905045716
    },
    "tags": {
      "@id": "way/360552567",
      "addr:city": "Elandspoort 357-Jr",
      "addr:postcode": "0132",
      "addr:street": "Roper Street",
      "building": "university",
      "building:levels": "2",
      "height": "6",
      "name": "Sci-Enza",
      "note": "Hatfield Digital Twin City",
      "ref": "19",
      "website": "https://www.up.ac.za/sci-enza-hands-on-science-wetenskap-in-aksie"
    }
  },
  {
    "id": "way/483959448",
    "name": "Heavy machine labs",
    "description": null,
    "ref": "7",
    "centroid": {
      "longitude": 28.227485131957415,
      "latitude": -25.753781120902037
    },
    "tags": {
      "@id": "way/483959448",
      "building": "university",
      "name": "Heavy machine labs",
      "ref": "7"
    }
  },
  {
    "id": "way/483960758",
    "name": "Visitors Reception",
    "description": null,
    "ref": "44",
    "centroid": {
      "longitude": 28.231146550000005,
      "latitude": -25.755964
    },
    "tags": {
      "@id": "way/483960758",
      "building": "yes",
      "name": "Visitors Reception",
      "ref": "44"
    }
  },
  {
    "id": "way/483960759",
    "name": "Kya Rosa",
    "description": null,
    "ref": "1",
    "centroid": {
      "longitude": 28.230681382808093,
      "latitude": -25.755980248829548
    },
    "tags": {
      "@id": "way/483960759",
      "building": "yes",
      "name": "Kya Rosa",
      "ref": "1",
      "wikidata": "Q6450614",
      "wikipedia": "en:Kya Rosa, University of Pretoria"
    }
  },
  {
    "id": "way/483960761",
    "name": "Junior Tukkie Administration",
    "description": null,
    "ref": null,
    "centroid": {
      "longitude": 28.231680850993765,
      "latitude": -25.755509185783477
    },
    "tags": {
      "@id": "way/483960761",
      "building": "yes",
      "name": "Junior Tukkie Administration"
    }
  },
  {
    "id": "way/483962280",
    "name": "Student Support",
    "description": null,
    "ref": null,
    "centroid": {
      "longitude": 28.231874805814176,
      "latitude": -25.754672283621623
    },
    "tags": {
      "@id": "way/483962280",
      "building": "yes",
      "building:levels": "1",
      "name": "Student Support"
    }
  },
  {
    "id": "way/483964287",
    "name": "FABI 2",
    "description": null,
    "ref": "63",
    "centroid": {
      "longitude": 28.234905491623,
      "latitude": -25.755772245207528
    },
    "tags": {
      "@id": "way/483964287",
      "building": "yes",
      "building:levels": "3",
      "name": "FABI 2",
      "ref": "63"
    }
  },
  {
    "id": "way/483964416",
    "name": null,
    "description": null,
    "ref": null,
    "centroid": {
      "longitude": 28.23540762649811,
      "latitude": -25.756975567429713
    },
    "tags": {
      "@id": "way/483964416",
      "building": "dormitory"
    }
  },
  {
    "id": "way/483964417",
    "name": null,
    "description": null,
    "ref": null,
    "centroid": {
      "longitude": 28.235560728631132,
      "latitude": -25.757017557504916
    },
    "tags": {
      "@id": "way/483964417",
      "building": "dormitory"
    }
  },
  {
    "id": "way/483964418",
    "name": null,
    "description": null,
    "ref": null,
    "centroid": {
      "longitude": 28.235751884230986,
      "latitude": -25.757065631015337
    },
    "tags": {
      "@id": "way/483964418",
      "building": "dormitory"
    }
  },
  {
    "id": "way/483964419",
    "name": null,
    "description": null,
    "ref": null,
    "centroid": {
      "longitude": 28.23532731583183,
      "latitude": -25.757119660770794
    },
    "tags": {
      "@id": "way/483964419",
      "building": "dormitory"
    }
  },
  {
    "id": "way/483964421",
    "name": null,
    "description": null,
    "ref": null,
    "centroid": {
      "longitude": 28.23551160957932,
      "latitude": -25.757224627756187
    },
    "tags": {
      "@id": "way/483964421",
      "building": "dormitory"
    }
  },
  {
    "id": "way/483964422",
    "name": null,
    "description": null,
    "ref": null,
    "centroid": {
      "longitude": 28.235719788939868,
      "latitude": -25.75721572824437
    },
    "tags": {
      "@id": "way/483964422",
      "building": "dormitory"
    }
  },
  {
    "id": "way/483964423",
    "name": null,
    "description": null,
    "ref": null,
    "centroid": {
      "longitude": 28.235459190445308,
      "latitude": -25.757360533823014
    },
    "tags": {
      "@id": "way/483964423",
      "building": "dormitory"
    }
  },
  {
    "id": "way/483965316",
    "name": "House Khutso",
    "description": "Women's Residence",
    "ref": null,
    "centroid": {
      "longitude": 28.23472468041039,
      "latitude": -25.75325335049601
    },
    "tags": {
      "@id": "way/483965316",
      "addr:city": "Hatfield, Pretoria",
      "addr:housenumber": "1099",
      "addr:postcode": "0028",
      "addr:street": "South Street",
      "alt_name": "Jasmyn",
      "building": "dormitory",
      "description": "Women's Residence",
      "name": "House Khutso"
    }
  },
  {
    "id": "way/483965511",
    "name": "Vergeet-my-nie",
    "description": "Women's Residence",
    "ref": null,
    "centroid": {
      "longitude": 28.234153200983634,
      "latitude": -25.752610782059662
    },
    "tags": {
      "@id": "way/483965511",
      "building": "dormitory",
      "description": "Women's Residence",
      "guest_house": "student_accomodation",
      "name": "Vergeet-my-nie"
    }
  },
  {
    "id": "way/483965512",
    "name": "Asterhof",
    "description": "Women's Residence",
    "ref": null,
    "centroid": {
      "longitude": 28.234757967429527,
      "latitude": -25.75244871971168
    },
    "tags": {
      "@id": "way/483965512",
      "building": "dormitory",
      "description": "Women's Residence",
      "name": "Asterhof"
    }
  },
  {
    "id": "way/483965513",
    "name": "Jake Dining Hall",
    "description": null,
    "ref": null,
    "centroid": {
      "longitude": 28.23471738524146,
      "latitude": -25.752926088289932
    },
    "tags": {
      "@id": "way/483965513",
      "amenity": "fast_food",
      "building": "yes",
      "fast_food": "cafeteria",
      "name": "Jake Dining Hall"
    }
  },
  {
    "id": "way/483965514",
    "name": null,
    "description": null,
    "ref": null,
    "centroid": {
      "longitude": 28.234985697347437,
      "latitude": -25.75279269777125
    },
    "tags": {
      "@id": "way/483965514",
      "amenity": "fast_food",
      "building": "yes",
      "fast_food": "cafeteria"
    }
  },
  {
    "id": "way/483965584",
    "name": "Plant Sciences Complex",
    "description": null,
    "ref": "59",
    "centroid": {
      "longitude": 28.235557415913117,
      "latitude": -25.755179749540275
    },
    "tags": {
      "@id": "way/483965584",
      "addr:city": "Pretoria",
      "addr:postcode": "0083",
      "addr:street": "c/o Duxbury and Hilda Street",
      "architect": "kwpCreate",
      "building": "yes",
      "building:levels": "6",
      "building:levels:underground": "1",
      "height": "19",
      "name": "Plant Sciences Complex",
      "note": "Hatfield Digital Twin",
      "office": "educational_institution",
      "opening_hours": "Mo-Sa 08:00-20:00",
      "phone": "+27 (0) 12 420 3770",
      "ref": "59"
    }
  },
  {
    "id": "way/483965586",
    "name": "Centre for Responsible Leadership",
    "description": null,
    "ref": "60",
    "centroid": {
      "longitude": 28.234948825415596,
      "latitude": -25.755117777460313
    },
    "tags": {
      "@id": "way/483965586",
      "building": "yes",
      "name": "Centre for Responsible Leadership",
      "ref": "60"
    }
  },
  {
    "id": "way/483965610",
    "name": "Graduate Centre",
    "description": null,
    "ref": "61",
    "centroid": {
      "longitude": 28.23447717260727,
      "latitude": -25.755101102095438
    },
    "tags": {
      "@id": "way/483965610",
      "addr:city": "Hatfield",
      "addr:postcode": "0028",
      "addr:street": "Ring Road",
      "building": "yes",
      "building:levels": "2",
      "name": "Graduate Centre",
      "ref": "61",
      "source": "Hatfield digital twin city"
    }
  },
  {
    "id": "way/483966934",
    "name": "Technical Services Building",
    "description": null,
    "ref": "18",
    "centroid": {
      "longitude": 28.230864671923996,
      "latitude": -25.751407880546747
    },
    "tags": {
      "@id": "way/483966934",
      "addr:city": "Hatfield",
      "addr:postcode": "0028",
      "addr:street": "Roper Street",
      "building": "university",
      "building:levels": "3",
      "height": "9",
      "name": "Technical Services Building",
      "note": "Hatfield Digital Twin City",
      "ref": "18"
    }
  },
  {
    "id": "way/483968484",
    "name": "Drama Building",
    "description": null,
    "ref": "45",
    "centroid": {
      "longitude": 28.233267820471067,
      "latitude": -25.75664791483695
    },
    "tags": {
      "@id": "way/483968484",
      "building": "yes",
      "name": "Drama Building",
      "ref": "45"
    }
  },
  {
    "id": "way/483969203",
    "name": null,
    "description": null,
    "ref": null,
    "centroid": {
      "longitude": 28.2332042,
      "latitude": -25.752872050000004
    },
    "tags": {
      "@id": "way/483969203",
      "building": "yes"
    }
  },
  {
    "id": "way/483969319",
    "name": "Engineering 1 Building",
    "description": "Faculty of Engineering, Built Environment & IT",
    "ref": "9",
    "centroid": {
      "longitude": 28.22852450525607,
      "latitude": -25.753198601720804
    },
    "tags": {
      "@id": "way/483969319",
      "addr:city": "Pretoria",
      "addr:street": "Ring Road",
      "building": "university",
      "building:levels": "11",
      "description": "Faculty of Engineering, Built Environment & IT",
      "name": "Engineering 1 Building",
      "ref": "9"
    }
  },
  {
    "id": "way/483969917",
    "name": null,
    "description": null,
    "ref": null,
    "centroid": {
      "longitude": 28.232512456964617,
      "latitude": -25.751784516299153
    },
    "tags": {
      "@id": "way/483969917",
      "building": "yes"
    }
  },
  {
    "id": "way/483969919",
    "name": null,
    "description": null,
    "ref": null,
    "centroid": {
      "longitude": 28.232314649999992,
      "latitude": -25.752469849999997
    },
    "tags": {
      "@id": "way/483969919",
      "building": "yes"
    }
  },
  {
    "id": "way/483969920",
    "name": null,
    "description": null,
    "ref": null,
    "centroid": {
      "longitude": 28.232539778413038,
      "latitude": -25.752583351400347
    },
    "tags": {
      "@id": "way/483969920",
      "building": "yes"
    }
  },
  {
    "id": "way/483969921",
    "name": null,
    "description": null,
    "ref": null,
    "centroid": {
      "longitude": 28.2325425,
      "latitude": -25.751970449999998
    },
    "tags": {
      "@id": "way/483969921",
      "building": "yes"
    }
  },
  {
    "id": "way/483969922",
    "name": null,
    "description": null,
    "ref": null,
    "centroid": {
      "longitude": 28.23223552785837,
      "latitude": -25.751990953728654
    },
    "tags": {
      "@id": "way/483969922",
      "building": "yes"
    }
  },
  {
    "id": "way/483969923",
    "name": null,
    "description": null,
    "ref": null,
    "centroid": {
      "longitude": 28.23222334701492,
      "latitude": -25.751785335803355
    },
    "tags": {
      "@id": "way/483969923",
      "building": "yes"
    }
  },
  {
    "id": "way/483970724",
    "name": null,
    "description": null,
    "ref": null,
    "centroid": {
      "longitude": 28.23225186304421,
      "latitude": -25.756472603120688
    },
    "tags": {
      "@id": "way/483970724",
      "building": "carport"
    }
  },
  {
    "id": "way/483972000",
    "name": "House Nala",
    "description": "Women's Residence",
    "ref": null,
    "centroid": {
      "longitude": 28.233618765793537,
      "latitude": -25.753346013041554
    },
    "tags": {
      "@id": "way/483972000",
      "alt_name": "Klaradyn",
      "building": "dormitory",
      "description": "Women's Residence",
      "name": "House Nala"
    }
  },
  {
    "id": "way/483972001",
    "name": null,
    "description": "Other building connected to Erica",
    "ref": null,
    "centroid": {
      "longitude": 28.233494114161296,
      "latitude": -25.753021608778027
    },
    "tags": {
      "@id": "way/483972001",
      "addr:city": "Pretoria",
      "addr:postcode": "0028",
      "addr:street": "Prospect Street",
      "building": "yes",
      "description": "Other building connected to Erica",
      "source": "Hatfield Digital Twin City"
    }
  },
  {
    "id": "way/483972002",
    "name": null,
    "description": null,
    "ref": null,
    "centroid": {
      "longitude": 28.23282805,
      "latitude": -25.752936
    },
    "tags": {
      "@id": "way/483972002",
      "building": "roof"
    }
  },
  {
    "id": "way/483972003",
    "name": null,
    "description": null,
    "ref": null,
    "centroid": {
      "longitude": 28.232517269825543,
      "latitude": -25.752764516293706
    },
    "tags": {
      "@id": "way/483972003",
      "building": "roof"
    }
  },
  {
    "id": "way/483972071",
    "name": null,
    "description": null,
    "ref": null,
    "centroid": {
      "longitude": 28.232684508985255,
      "latitude": -25.75245687439111
    },
    "tags": {
      "@id": "way/483972071",
      "building": "yes"
    }
  },
  {
    "id": "way/483972136",
    "name": null,
    "description": null,
    "ref": null,
    "centroid": {
      "longitude": 28.232503058755654,
      "latitude": -25.752895227432
    },
    "tags": {
      "@id": "way/483972136",
      "building": "roof"
    }
  },
  {
    "id": "way/483972137",
    "name": null,
    "description": null,
    "ref": null,
    "centroid": {
      "longitude": 28.232851500000002,
      "latitude": -25.752792300000003
    },
    "tags": {
      "@id": "way/483972137",
      "building": "yes"
    }
  },
  {
    "id": "way/483972570",
    "name": "Landbou-anneks",
    "description": null,
    "ref": "67",
    "centroid": {
      "longitude": 28.234331873738988,
      "latitude": -25.756305047811747
    },
    "tags": {
      "@id": "way/483972570",
      "building": "yes",
      "name": "Landbou-anneks",
      "ref": "67"
    }
  },
  {
    "id": "way/483972573",
    "name": "Natural and Agricultural Sciences Building",
    "description": null,
    "ref": "65",
    "centroid": {
      "longitude": 28.23488753939621,
      "latitude": -25.756501088676366
    },
    "tags": {
      "@id": "way/483972573",
      "building": "yes",
      "building:levels": "12",
      "name": "Natural and Agricultural Sciences Building",
      "ref": "65"
    }
  },
  {
    "id": "way/483972575",
    "name": null,
    "description": null,
    "ref": null,
    "centroid": {
      "longitude": 28.234260813266822,
      "latitude": -25.756935078450837
    },
    "tags": {
      "@id": "way/483972575",
      "building": "yes"
    }
  },
  {
    "id": "way/483972629",
    "name": "Maths building",
    "description": null,
    "ref": null,
    "centroid": {
      "longitude": 28.230034578950214,
      "latitude": -25.751992886288356
    },
    "tags": {
      "@id": "way/483972629",
      "building": "university",
      "name": "Maths building"
    }
  },
  {
    "id": "way/483972684",
    "name": "Monastery Hall",
    "description": null,
    "ref": "49",
    "centroid": {
      "longitude": 28.233200883600638,
      "latitude": -25.754522301959444
    },
    "tags": {
      "@id": "way/483972684",
      "building": "yes",
      "building:levels": "1",
      "name": "Monastery Hall",
      "name:af": "Kloostersaal",
      "name:en": "Monastery Hall",
      "ref": "49",
      "wheelchair": "yes"
    }
  },
  {
    "id": "way/483972788",
    "name": "Lier Theatre",
    "description": null,
    "ref": "66",
    "centroid": {
      "longitude": 28.234332729228218,
      "latitude": -25.756961146625766
    },
    "tags": {
      "@id": "way/483972788",
      "building": "yes",
      "layer": "-1",
      "name": "Lier Theatre",
      "ref": "66"
    }
  },
  {
    "id": "way/483973002",
    "name": "Building 70",
    "description": null,
    "ref": "70",
    "centroid": {
      "longitude": 28.225965384199466,
      "latitude": -25.75669071196805
    },
    "tags": {
      "@id": "way/483973002",
      "building": "yes",
      "building:levels": "1",
      "height": "6.5",
      "name": "Building 70",
      "ref": "70"
    }
  },
  {
    "id": "way/483973181",
    "name": null,
    "description": null,
    "ref": null,
    "centroid": {
      "longitude": 28.232268477992214,
      "latitude": -25.75630889862225
    },
    "tags": {
      "@id": "way/483973181",
      "building": "carport"
    }
  },
  {
    "id": "way/483973182",
    "name": "Building 78",
    "description": null,
    "ref": "78",
    "centroid": {
      "longitude": 28.229347564267048,
      "latitude": -25.756929777174456
    },
    "tags": {
      "@id": "way/483973182",
      "building": "yes",
      "building:levels": "2",
      "height": "9",
      "name": "Building 78",
      "ref": "78"
    }
  },
  {
    "id": "way/483974442",
    "name": null,
    "description": null,
    "ref": null,
    "centroid": {
      "longitude": 28.234447394460314,
      "latitude": -25.757097155973238
    },
    "tags": {
      "@id": "way/483974442",
      "building": "yes"
    }
  },
  {
    "id": "way/483974445",
    "name": null,
    "description": null,
    "ref": null,
    "centroid": {
      "longitude": 28.234846778692944,
      "latitude": -25.757132282179334
    },
    "tags": {
      "@id": "way/483974445",
      "building": "roof",
      "layer": "1"
    }
  },
  {
    "id": "way/483974446",
    "name": null,
    "description": null,
    "ref": null,
    "centroid": {
      "longitude": 28.234884749999992,
      "latitude": -25.75697725
    },
    "tags": {
      "@id": "way/483974446",
      "building": "roof",
      "layer": "1"
    }
  },
  {
    "id": "way/483974454",
    "name": null,
    "description": null,
    "ref": null,
    "centroid": {
      "longitude": 28.234846998982885,
      "latitude": -25.75556414829144
    },
    "tags": {
      "@id": "way/483974454",
      "building": "yes"
    }
  },
  {
    "id": "way/483974462",
    "name": null,
    "description": null,
    "ref": null,
    "centroid": {
      "longitude": 28.233121300000004,
      "latitude": -25.754803750000004
    },
    "tags": {
      "@id": "way/483974462",
      "building": "yes"
    }
  },
  {
    "id": "way/483976319",
    "name": null,
    "description": null,
    "ref": null,
    "centroid": {
      "longitude": 28.235187923961007,
      "latitude": -25.753814691940992
    },
    "tags": {
      "@id": "way/483976319",
      "building": "yes"
    }
  },
  {
    "id": "way/483976328",
    "name": null,
    "description": null,
    "ref": null,
    "centroid": {
      "longitude": 28.2358037,
      "latitude": -25.75309695
    },
    "tags": {
      "@id": "way/483976328",
      "building": "yes"
    }
  },
  {
    "id": "way/483976329",
    "name": null,
    "description": null,
    "ref": null,
    "centroid": {
      "longitude": 28.235881050000003,
      "latitude": -25.75324065000001
    },
    "tags": {
      "@id": "way/483976329",
      "building": "yes"
    }
  },
  {
    "id": "way/483976330",
    "name": null,
    "description": null,
    "ref": null,
    "centroid": {
      "longitude": 28.235875960705783,
      "latitude": -25.753363527777314
    },
    "tags": {
      "@id": "way/483976330",
      "building": "yes"
    }
  },
  {
    "id": "way/483976331",
    "name": null,
    "description": null,
    "ref": null,
    "centroid": {
      "longitude": 28.236157020270532,
      "latitude": -25.753342830599845
    },
    "tags": {
      "@id": "way/483976331",
      "building": "yes"
    }
  },
  {
    "id": "way/483976332",
    "name": null,
    "description": null,
    "ref": null,
    "centroid": {
      "longitude": 28.236073750000003,
      "latitude": -25.753349699999998
    },
    "tags": {
      "@id": "way/483976332",
      "building": "yes"
    }
  },
  {
    "id": "way/483976333",
    "name": null,
    "description": null,
    "ref": null,
    "centroid": {
      "longitude": 28.236251350000003,
      "latitude": -25.753322
    },
    "tags": {
      "@id": "way/483976333",
      "building": "yes"
    }
  },
  {
    "id": "way/483976334",
    "name": null,
    "description": null,
    "ref": null,
    "centroid": {
      "longitude": 28.236261892441966,
      "latitude": -25.753357966151533
    },
    "tags": {
      "@id": "way/483976334",
      "building": "yes"
    }
  },
  {
    "id": "way/483976335",
    "name": "House Mags/Madelief Dining Hall",
    "description": null,
    "ref": null,
    "centroid": {
      "longitude": 28.236163666669558,
      "latitude": -25.753001596915336
    },
    "tags": {
      "@id": "way/483976335",
      "addr:city": "Hatfield",
      "addr:housenumber": "1107",
      "addr:postcode": "0028",
      "addr:street": "Prospect Street",
      "building": "residential",
      "building:levels": "3",
      "name": "House Mags/Madelief Dining Hall"
    }
  },
  {
    "id": "way/483976336",
    "name": "House Mags",
    "description": null,
    "ref": null,
    "centroid": {
      "longitude": 28.236213452219655,
      "latitude": -25.75269504623426
    },
    "tags": {
      "@id": "way/483976336",
      "addr:city": "Hatfield",
      "addr:housenumber": "1107",
      "addr:postcode": "0083",
      "addr:street": "Prospect Street",
      "alt_name": "Magrietjie",
      "building": "dormitory",
      "internet_access": "wired",
      "internet_access:fee": "no",
      "name": "House Mags",
      "operator": "University of Pretoria",
      "rooms": "288"
    }
  },
  {
    "id": "way/483976338",
    "name": null,
    "description": null,
    "ref": null,
    "centroid": {
      "longitude": 28.23505384666022,
      "latitude": -25.75311078326981
    },
    "tags": {
      "@id": "way/483976338",
      "building": "dormitory"
    }
  },
  {
    "id": "way/483984068",
    "name": "Building 76",
    "description": null,
    "ref": "76",
    "centroid": {
      "longitude": 28.227972269013033,
      "latitude": -25.756961077206796
    },
    "tags": {
      "@id": "way/483984068",
      "building": "yes",
      "building:levels": "2",
      "height": "8",
      "name": "Building 76",
      "ref": "76"
    }
  },
  {
    "id": "way/484002087",
    "name": "Visual Arts",
    "description": "Faculty of Humanities",
    "ref": "4",
    "centroid": {
      "longitude": 28.227892955922233,
      "latitude": -25.75582272110626
    },
    "tags": {
      "@id": "way/484002087",
      "addr:city": "Pretoria",
      "addr:housenumber": "357-Jr",
      "addr:postcode": "0132",
      "addr:street": "Elandspoort",
      "building": "university",
      "building:architecture": "Basil South,Meiring & Naude",
      "building:levels": "3",
      "description": "Faculty of Humanities",
      "height": "14",
      "name": "Visual Arts",
      "ref": "4",
      "source": "Hatfield Digital Twin",
      "year_of_construction": "1948"
    }
  },
  {
    "id": "way/484349104",
    "name": "UP shop and Vida Cafe",
    "description": null,
    "ref": "62",
    "centroid": {
      "longitude": 28.23434363270857,
      "latitude": -25.75563516624068
    },
    "tags": {
      "@id": "way/484349104",
      "building": "yes",
      "building:levels": "1",
      "name": "UP shop and Vida Cafe",
      "ref": "62"
    }
  },
  {
    "id": "way/484349543",
    "name": "JJ Theron-lesingsaal",
    "description": null,
    "ref": "68",
    "centroid": {
      "longitude": 28.234027650000005,
      "latitude": -25.756066200000003
    },
    "tags": {
      "@id": "way/484349543",
      "building": "yes",
      "name": "JJ Theron-lesingsaal",
      "ref": "68"
    }
  },
  {
    "id": "way/484349688",
    "name": "Maskerteater",
    "description": null,
    "ref": "69",
    "centroid": {
      "longitude": 28.23396635401789,
      "latitude": -25.756332729858272
    },
    "tags": {
      "@id": "way/484349688",
      "building": "yes",
      "name": "Maskerteater",
      "ref": "69",
      "wikidata": "Q25613567",
      "wikipedia": "af:Maskerteater"
    }
  },
  {
    "id": "way/484350806",
    "name": null,
    "description": null,
    "ref": null,
    "centroid": {
      "longitude": 28.23224383796627,
      "latitude": -25.7530749678343
    },
    "tags": {
      "@id": "way/484350806",
      "building": "yes"
    }
  },
  {
    "id": "way/484350808",
    "name": null,
    "description": null,
    "ref": null,
    "centroid": {
      "longitude": 28.2324699,
      "latitude": -25.7530219
    },
    "tags": {
      "@id": "way/484350808",
      "building": "roof"
    }
  },
  {
    "id": "way/484350810",
    "name": null,
    "description": null,
    "ref": null,
    "centroid": {
      "longitude": 28.23286165,
      "latitude": -25.753617549999998
    },
    "tags": {
      "@id": "way/484350810",
      "building": "yes"
    }
  },
  {
    "id": "way/484350812",
    "name": "Centenary Building",
    "description": null,
    "ref": "55",
    "centroid": {
      "longitude": 28.23303177604126,
      "latitude": -25.75394369912399
    },
    "tags": {
      "@id": "way/484350812",
      "building": "university",
      "name": "Centenary Building",
      "ref": "55"
    }
  },
  {
    "id": "way/484350814",
    "name": null,
    "description": null,
    "ref": null,
    "centroid": {
      "longitude": 28.232885327114477,
      "latitude": -25.753064597871617
    },
    "tags": {
      "@id": "way/484350814",
      "building": "roof"
    }
  },
  {
    "id": "way/484350817",
    "name": null,
    "description": null,
    "ref": null,
    "centroid": {
      "longitude": 28.23295959871381,
      "latitude": -25.75324007263913
    },
    "tags": {
      "@id": "way/484350817",
      "building": "roof"
    }
  },
  {
    "id": "way/484350820",
    "name": null,
    "description": null,
    "ref": null,
    "centroid": {
      "longitude": 28.2330999,
      "latitude": -25.753091249999997
    },
    "tags": {
      "@id": "way/484350820",
      "building": "yes"
    }
  },
  {
    "id": "way/484351511",
    "name": null,
    "description": null,
    "ref": null,
    "centroid": {
      "longitude": 28.2360429,
      "latitude": -25.7563508
    },
    "tags": {
      "@id": "way/484351511",
      "building": "yes"
    }
  },
  {
    "id": "way/484352072",
    "name": "Marketing Services Building",
    "description": "Faculty of Economic and Management Sciences",
    "ref": "37",
    "centroid": {
      "longitude": 28.230301506129663,
      "latitude": -25.754549747865205
    },
    "tags": {
      "@id": "way/484352072",
      "building": "yes",
      "description": "Faculty of Economic and Management Sciences",
      "name": "Marketing Services Building",
      "ref": "37"
    }
  },
  {
    "id": "way/484352073",
    "name": "Club Hall",
    "description": null,
    "ref": "30",
    "centroid": {
      "longitude": 28.229282763337135,
      "latitude": -25.754277369196622
    },
    "tags": {
      "@id": "way/484352073",
      "building": "university",
      "name": "Club Hall",
      "ref": "30"
    }
  },
  {
    "id": "way/484352680",
    "name": "Student Health services",
    "description": null,
    "ref": "22",
    "centroid": {
      "longitude": 28.23135396044967,
      "latitude": -25.753311205093166
    },
    "tags": {
      "@id": "way/484352680",
      "addr:city": "Pretoria",
      "addr:housenumber": "357",
      "addr:postcode": "0132",
      "addr:street": "Elandspoort, Roper Street",
      "amenity": "clinic",
      "beds": "1",
      "building": "yes",
      "contact:phone": "+27 12 420 2500",
      "dispensing": "yes",
      "electricity": "grid",
      "emergency": "no",
      "health_amenity:type": "operating_theater;ultrasound;x_ray",
      "healthcare": "alternative;birthing_centre;clinic;doctor;pharmacy",
      "healthcare:speciality": "general;immunology;infectious_diseases;ophthalmology;trauma;vaccination",
      "insurance:health": "private",
      "is_in:health_zone": "yes",
      "name": "Student Health services",
      "opening_hours": "Mo-Fr 08:00-16:00",
      "operational_status": "operational",
      "operator:type": "private",
      "part_time_beds": "1",
      "ref": "22",
      "staff_count:doctors": "1",
      "staff_count:nurses": "2",
      "url": "https://www.up.ac.za/student-health-services/article/2645164/campus-clinic",
      "water_source": "water_works",
      "wheelchair": "yes"
    }
  },
  {
    "id": "way/484352988",
    "name": null,
    "description": null,
    "ref": null,
    "centroid": {
      "longitude": 28.23210874417255,
      "latitude": -25.752458215713347
    },
    "tags": {
      "@id": "way/484352988",
      "building": "yes"
    }
  },
  {
    "id": "way/484352989",
    "name": null,
    "description": null,
    "ref": null,
    "centroid": {
      "longitude": 28.23209688847876,
      "latitude": -25.752689521231016
    },
    "tags": {
      "@id": "way/484352989",
      "building": "yes"
    }
  },
  {
    "id": "way/484588839",
    "name": "Engineering 3 Parking",
    "description": null,
    "ref": null,
    "centroid": {
      "longitude": 28.228244949875773,
      "latitude": -25.75452943337692
    },
    "tags": {
      "@id": "way/484588839",
      "access": "permissive",
      "amenity": "parking",
      "building": "parking",
      "fee": "yes",
      "name": "Engineering 3 Parking",
      "parking": "multi-storey"
    }
  },
  {
    "id": "way/484589114",
    "name": "Artisan Coffee",
    "description": null,
    "ref": null,
    "centroid": {
      "longitude": 28.228995549311374,
      "latitude": -25.754103493853272
    },
    "tags": {
      "@id": "way/484589114",
      "amenity": "restaurant",
      "building": "yes",
      "name": "Artisan Coffee"
    }
  },
  {
    "id": "way/484589990",
    "name": "Building 75",
    "description": null,
    "ref": "75",
    "centroid": {
      "longitude": 28.22758477250471,
      "latitude": -25.756541776091645
    },
    "tags": {
      "@id": "way/484589990",
      "building": "yes",
      "building:levels": "2",
      "height": "9",
      "name": "Building 75",
      "ref": "75"
    }
  },
  {
    "id": "way/484589991",
    "name": "Building 77",
    "description": null,
    "ref": "77",
    "centroid": {
      "longitude": 28.22807932070975,
      "latitude": -25.756594377617983
    },
    "tags": {
      "@id": "way/484589991",
      "building": "yes",
      "building:levels": "2",
      "height": "9",
      "name": "Building 77",
      "ref": "77"
    }
  },
  {
    "id": "way/484589992",
    "name": "Building 73",
    "description": null,
    "ref": "73",
    "centroid": {
      "longitude": 28.227184862448983,
      "latitude": -25.756668531254377
    },
    "tags": {
      "@id": "way/484589992",
      "building": "yes",
      "building:levels": "2",
      "height": "9",
      "name": "Building 73",
      "ref": "73"
    }
  },
  {
    "id": "way/484589993",
    "name": "Building 75B",
    "description": null,
    "ref": "75",
    "centroid": {
      "longitude": 28.227658097835402,
      "latitude": -25.75669803368763
    },
    "tags": {
      "@id": "way/484589993",
      "building": "yes",
      "building:code": "75B",
      "building:levels": "2",
      "height": "9",
      "name": "Building 75B",
      "ref": "75"
    }
  },
  {
    "id": "way/484589994",
    "name": "Building 71",
    "description": null,
    "ref": "71",
    "centroid": {
      "longitude": 28.2267593728465,
      "latitude": -25.756430734450152
    },
    "tags": {
      "@id": "way/484589994",
      "building": "yes",
      "building:levels": "2",
      "height": "7",
      "name": "Building 71",
      "ref": "71"
    }
  },
  {
    "id": "way/484591997",
    "name": "Thuto Building",
    "description": null,
    "ref": "21",
    "centroid": {
      "longitude": 28.231356338328194,
      "latitude": -25.752918953325896
    },
    "tags": {
      "@id": "way/484591997",
      "building": "university",
      "name": "Thuto Building",
      "ref": "21"
    }
  },
  {
    "id": "way/484958076",
    "name": null,
    "description": null,
    "ref": null,
    "centroid": {
      "longitude": 28.227561800859274,
      "latitude": -25.75304671886955
    },
    "tags": {
      "@id": "way/484958076",
      "building": "shed"
    }
  },
  {
    "id": "way/484958077",
    "name": null,
    "description": null,
    "ref": null,
    "centroid": {
      "longitude": 28.227647572581013,
      "latitude": -25.753110852871295
    },
    "tags": {
      "@id": "way/484958077",
      "building": "shed"
    }
  },
  {
    "id": "way/484959037",
    "name": "Mining Industry Study Centre",
    "description": "Faculty of Engineering, Built Environment & IT",
    "ref": null,
    "centroid": {
      "longitude": 28.228295984273853,
      "latitude": -25.753065683901347
    },
    "tags": {
      "@id": "way/484959037",
      "addr:city": "Pretoria",
      "addr:postcode": "0002",
      "addr:street": "Elandspoort 357-Jr",
      "building": "university",
      "building:levels": "2",
      "building:use": "educational",
      "description": "Faculty of Engineering, Built Environment & IT",
      "name": "Mining Industry Study Centre",
      "operator": "Students and Lecturers"
    }
  },
  {
    "id": "way/484965068",
    "name": "Bateman building",
    "description": null,
    "ref": "15",
    "centroid": {
      "longitude": 28.229260000000004,
      "latitude": -25.751977750000002
    },
    "tags": {
      "@id": "way/484965068",
      "building": "yes",
      "name": "Bateman building",
      "ref": "15"
    }
  },
  {
    "id": "way/484965069",
    "name": "Vetman Building",
    "description": null,
    "ref": "14",
    "centroid": {
      "longitude": 28.22917606458453,
      "latitude": -25.752095495476876
    },
    "tags": {
      "@id": "way/484965069",
      "building": "yes",
      "name": "Vetman Building",
      "ref": "14"
    }
  },
  {
    "id": "way/484965070",
    "name": "Stoneman Building",
    "description": null,
    "ref": "13",
    "centroid": {
      "longitude": 28.2290933,
      "latitude": -25.752222299999996
    },
    "tags": {
      "@id": "way/484965070",
      "building": "yes",
      "name": "Stoneman Building",
      "ref": "13"
    }
  },
  {
    "id": "way/484965071",
    "name": null,
    "description": null,
    "ref": null,
    "centroid": {
      "longitude": 28.22926725,
      "latitude": -25.752219050000004
    },
    "tags": {
      "@id": "way/484965071",
      "building": "greenhouse"
    }
  },
  {
    "id": "way/484965458",
    "name": "AE Auditorium and Annex",
    "description": null,
    "ref": "12",
    "centroid": {
      "longitude": 28.228657706412648,
      "latitude": -25.752282596546152
    },
    "tags": {
      "@id": "way/484965458",
      "building": "university",
      "name": "AE Auditorium and Annex",
      "ref": "12"
    }
  },
  {
    "id": "way/484965459",
    "name": "Mineral sciences",
    "description": null,
    "ref": "10",
    "centroid": {
      "longitude": 28.228515859433738,
      "latitude": -25.75264212371195
    },
    "tags": {
      "@id": "way/484965459",
      "addr:city": "Pretoria",
      "addr:housenumber": "Elandspoort 357-Jr",
      "addr:postcode": "0132",
      "addr:street": "University Road",
      "architect": "AL Meiring and PR Nel",
      "building": "university",
      "building:levels": "3",
      "height": "12",
      "name": "Mineral sciences",
      "note": "Hatfield Digital Twin City",
      "ref": "10",
      "roof:colour": "grey"
    }
  },
  {
    "id": "way/485699591",
    "name": "Botany Building",
    "description": null,
    "ref": "16",
    "centroid": {
      "longitude": 28.229539666765888,
      "latitude": -25.751740723298386
    },
    "tags": {
      "@id": "way/485699591",
      "building": "university",
      "name": "Botany Building",
      "ref": "16"
    }
  },
  {
    "id": "way/485699592",
    "name": null,
    "description": null,
    "ref": null,
    "centroid": {
      "longitude": 28.229140770728655,
      "latitude": -25.751642805767208
    },
    "tags": {
      "@id": "way/485699592",
      "building": "university"
    }
  },
  {
    "id": "way/504578797",
    "name": null,
    "description": null,
    "ref": null,
    "centroid": {
      "longitude": 28.23287832284526,
      "latitude": -25.75245936948312
    },
    "tags": {
      "@id": "way/504578797",
      "building": "yes"
    }
  },
  {
    "id": "way/504578798",
    "name": "Erica",
    "description": "Women's Residence",
    "ref": null,
    "centroid": {
      "longitude": 28.23344161062511,
      "latitude": -25.75259316886572
    },
    "tags": {
      "@id": "way/504578798",
      "addr:city": "Hatfield, Pretoria",
      "addr:postcode": "0083",
      "addr:street": "Prospect Street",
      "alt_name": "Erika",
      "building": "dormitory",
      "description": "Women's Residence",
      "guest_house": "student_accomodation",
      "name": "Erica"
    }
  },
  {
    "id": "way/618568575",
    "name": "Madelief",
    "description": null,
    "ref": null,
    "centroid": {
      "longitude": 28.235762595468906,
      "latitude": -25.752423905181402
    },
    "tags": {
      "@id": "way/618568575",
      "addr:street": "Hilda Street",
      "building": "dormitory",
      "name": "Madelief"
    }
  },
  {
    "id": "way/776974434",
    "name": "The Javett Art Centre",
    "description": null,
    "ref": null,
    "centroid": {
      "longitude": 28.22868789447778,
      "latitude": -25.7567345648595
    },
    "tags": {
      "@id": "way/776974434",
      "building": "yes",
      "name": "The Javett Art Centre",
      "operator": "University of Pretoria",
      "tourism": "gallery"
    }
  },
  {
    "id": "way/845896054",
    "name": "VARSITY CLOCK TOWER",
    "description": null,
    "ref": null,
    "centroid": {
      "longitude": 28.23014527418116,
      "latitude": -25.754131617623376
    },
    "tags": {
      "@id": "way/845896054",
      "addr:city": "Pretoria",
      "addr:street": "Kanseliers Avenue",
      "building": "yes",
      "building:levels": "3",
      "name": "VARSITY CLOCK TOWER"
    }
  },
  {
    "id": "way/858142042",
    "name": "Building 72",
    "description": null,
    "ref": "72",
    "centroid": {
      "longitude": 28.22670442579618,
      "latitude": -25.756824782124607
    },
    "tags": {
      "@id": "way/858142042",
      "building": "yes",
      "building:levels": "1",
      "height": "6.5",
      "name": "Building 72",
      "ref": "72"
    }
  },
  {
    "id": "way/865361935",
    "name": "Theology Building",
    "description": "University of Pretoria's Faculty of Theology and Religion",
    "ref": "34",
    "centroid": {
      "longitude": 28.22955511658477,
      "latitude": -25.75510151811369
    },
    "tags": {
      "@id": "way/865361935",
      "addr:city": "Pretoria",
      "addr:housenumber": "357",
      "addr:postcode": "0132",
      "addr:street": "Elandspoort",
      "building": "university",
      "building:levels": "2",
      "building:material": "brick",
      "description": "University of Pretoria's Faculty of Theology and Religion",
      "name": "Theology Building",
      "ref": "34",
      "start_date": "1951"
    }
  },
  {
    "id": "way/865659251",
    "name": "Humanities Building",
    "description": null,
    "ref": "42",
    "centroid": {
      "longitude": 28.230916899999997,
      "latitude": -25.755384250000002
    },
    "tags": {
      "@id": "way/865659251",
      "addr:city": "Pretoria",
      "addr:postcode": "0002",
      "addr:street": "Ring Road",
      "architect": "Brian Sandrock",
      "building": "yes",
      "building:levels": "22",
      "name": "Humanities Building",
      "note": "Hatfield Digital Twin City",
      "ref": "42"
    }
  },
  {
    "id": "way/865921581",
    "name": "Communication Pathology Building",
    "description": "Faculty of Humanities",
    "ref": "2",
    "centroid": {
      "longitude": 28.230103983841,
      "latitude": -25.756017819679798
    },
    "tags": {
      "@id": "way/865921581",
      "addr:city": "Pretoria",
      "addr:housenumber": "357",
      "addr:postcode": "0132",
      "addr:street": "Elandspoort",
      "architect": "WH Fleichmann",
      "building": "university",
      "building:levels": "2",
      "description": "Faculty of Humanities",
      "name": "Communication Pathology Building",
      "ref": "2"
    }
  },
  {
    "id": "way/866115731",
    "name": "Substation",
    "description": null,
    "ref": null,
    "centroid": {
      "longitude": 28.23036889245027,
      "latitude": -25.754163928055974
    },
    "tags": {
      "@id": "way/866115731",
      "addr:city": "Pretoria",
      "addr:housenumber": "23",
      "addr:postcode": "0000",
      "addr:street": "roper street",
      "building": "service",
      "building:levels": "1",
      "height": "3",
      "name": "Substation",
      "power": "substation",
      "substation": "minor_distribution"
    }
  },
  {
    "id": "way/866116581",
    "name": "Chancellors Building",
    "description": "Faculty of Economic and Management Sciences\nLecture hall",
    "ref": "39",
    "centroid": {
      "longitude": 28.230504281946203,
      "latitude": -25.754291356825913
    },
    "tags": {
      "@id": "way/866116581",
      "addr:city": "Pretoria",
      "addr:housenumber": "23",
      "addr:postcode": "0000",
      "addr:street": "Roper Street",
      "architect": "Meiring Naude, Brian Sandrock",
      "building": "university",
      "building:levels": "3",
      "building:material": "mixed",
      "description": "Faculty of Economic and Management Sciences\nLecture hall",
      "height": "12",
      "name": "Chancellors Building",
      "ref": "39",
      "smoking": "no"
    }
  },
  {
    "id": "way/1201060951",
    "name": "Old Merensky Library",
    "description": null,
    "ref": "36",
    "centroid": {
      "longitude": 28.2299841,
      "latitude": -25.7547429
    },
    "tags": {
      "@id": "way/1201060951",
      "building": "yes",
      "name": "Old Merensky Library",
      "ref": "36",
      "wikidata": "Q19623512",
      "wikipedia": "en:Old Merensky Library"
    }
  },
  {
    "id": "way/1210936522",
    "name": "Building 5",
    "description": null,
    "ref": "74",
    "centroid": {
      "longitude": 28.22748446016493,
      "latitude": -25.75685278118632
    },
    "tags": {
      "@id": "way/1210936522",
      "building": "yes",
      "name": "Building 5",
      "ref": "74"
    }
  },
  {
    "id": "way/1301530894",
    "name": null,
    "description": null,
    "ref": null,
    "centroid": {
      "longitude": 28.232674440458545,
      "latitude": -25.75456389106822
    },
    "tags": {
      "@id": "way/1301530894",
      "building": "yes"
    }
  },
  {
    "id": "way/1301530913",
    "name": null,
    "description": null,
    "ref": null,
    "centroid": {
      "longitude": 28.2326098,
      "latitude": -25.754909699999995
    },
    "tags": {
      "@id": "way/1301530913",
      "building": "yes"
    }
  },
  {
    "id": "way/1301530914",
    "name": null,
    "description": null,
    "ref": null,
    "centroid": {
      "longitude": 28.23334118595598,
      "latitude": -25.754954491534402
    },
    "tags": {
      "@id": "way/1301530914",
      "building": "yes"
    }
  },
  {
    "id": "way/1301530915",
    "name": "Information Technology Building",
    "description": null,
    "ref": null,
    "centroid": {
      "longitude": 28.232837651888158,
      "latitude": -25.75577209221432
    },
    "tags": {
      "@id": "way/1301530915",
      "building": "yes",
      "name": "Information Technology Building"
    }
  },
  {
    "id": "way/484351081",
    "name": "FABI 1",
    "description": null,
    "ref": "64",
    "centroid": {
      "longitude": 28.235376891089192,
      "latitude": -25.755732371988287
    },
    "tags": {
      "@id": "way/484351081",
      "building": "yes",
      "building:levels": "0",
      "name": "FABI 1",
      "ref": "64",
      "@relations": [
        {
          "role": "outer",
          "rel": 17591844,
          "reltags": {
            "building": "yes",
            "type": "multipolygon"
          }
        }
      ]
    }
  }
]